STARLINK-6219           
1 56892U 23083S   26164.99096434  .00000258  00000+0  18914-4 0  9990
2 56892  43.0066 265.1563 0001494 286.4364  73.6323 15.27579098166314
STARLINK-6216           
1 56893U 23083T   26165.53364360  .00003856  00000+0  14947-3 0  9996
2 56893  43.0138 258.0891 0001918 276.9597  83.1037 15.27609641166566
STARLINK-6144           
1 56894U 23083U   26165.54989451  .00001645  00000+0  69260-4 0  9995
2 56894  43.0037 261.6142 0001486 261.2055  98.8628 15.27590027166522
STARLINK-6208           
1 56895U 23083V   26164.98711430 -.00000218  00000+0  16025-5 0  9991
2 56895  43.0002 265.1275 0001377 277.1483  82.9212 15.27571432166310
STARLINK-6202           
1 56896U 23083W   26164.98325517 -.00000199  00000+0  22878-5 0  9990
2 56896  43.0016 265.0970 0001089 272.2703  87.8024 15.27574053166427
STARLINK-6200           
1 56897U 23083X   26164.58836042  .00000249  00000+0  18585-4 0  9991
2 56897  43.0004 267.2945 0001252 275.1197  84.9512 15.27579468166360
STARLINK-6205           
1 56898U 23083Y   26164.97909638  .00000348  00000+0  22177-4 0  9999
2 56898  43.0054 258.2441 0001723 281.1031  78.9627 15.27579741166504
STARLINK-6203           
1 56899U 23083Z   26165.52258044  .00002133  00000+0  86991-4 0  9998
2 56899  43.0059 254.5894 0001485 270.5809  89.4873 15.27595391166588
STARLINK-6207           
1 56900U 23083AA  26165.52276420 -.00000771  00000+0 -18519-4 0  9998
2 56900  42.9981 244.1571 0001101 275.0875  84.9851 15.27577506166571
STARLINK-6185           
1 56901U 23083AB  26165.55987448  .00000737  00000+0  36309-4 0  9998
2 56901  43.0029 254.8664 0001520 284.4349  75.6334 15.27581495166590
STARLINK-6195           
1 56902U 23083AC  26165.52533453 -.00000355  00000+0 -33738-5 0  9991
2 56902  43.0012 244.1744 0001017 277.9055  82.1681 15.27574681166717
STARLINK-6192           
1 56903U 23083AD  26165.53288626 -.00000275  00000+0 -47882-6 0  9999
2 56903  42.9996 254.6621 0001394 266.3175  93.7518 15.27575657166597
STARLINK-6193           
1 56904U 23083AE  26165.50477787 -.00000133  00000+0  47114-5 0  9994
2 56904  43.0005 244.0172 0001483 269.7813  90.2868 15.27574177166608
STARLINK-6183           
1 56905U 23083AF  26164.94569521  .00002609  00000+0  10426-3 0  9993
2 56905  43.0047 246.7144 0001690 280.5698  79.4963 15.27596412166527
STARLINK-6098           
1 56906U 23083AG  26163.97261809  .00000229  00000+0  17877-4 0  9998
2 56906  43.0061 252.3038 0001951 279.6786  80.3846 15.27577623166373
STARLINK-6110           
1 56907U 23083AH  26164.68801662 -.00001521  00000+0 -45765-4 0  9990
2 56907  43.0059 248.2154 0001726 280.3061  79.7596 15.27567473166599
STARLINK-6186           
1 56908U 23083AJ  26165.49064248 -.00000330  00000+0 -24506-5 0  9990
2 56908  43.0000 243.9098 0001592 263.2358  96.8313 15.27573663166602
STARLINK-5999           
1 56909U 23083AK  26165.52920586 -.00002482  00000+0 -80670-4 0  9994
2 56909  43.0038 244.2090 0004543 278.3109  81.7228 15.27554398166714
STARLINK-6179           
1 56910U 23083AL  26163.53676838 -.00000007  00000+0  92676-5 0  9993
2 56910  43.0022 255.0484 0001234 263.1471  96.9240 15.27572984166290
STARLINK-6116           
1 56911U 23083AM  26165.28676922  .00000069  00000+0  12035-4 0  9999
2 56911  43.0002 244.9582 0001157 227.6647 132.4107 15.27577320166577
STARLINK-5805           
1 56912U 23083AN  26164.92014943  .00000425  00000+0  24973-4 0  9999
2 56912  43.0001 247.3688 0001048 274.6255  85.4477 15.27577920166514
STARLINK-5950           
1 56913U 23083AP  26165.48678863  .00000114  00000+0  13696-4 0  9994
2 56913  43.0134 243.8919 0002590 280.7471  79.3089 15.27577118166601
STARLINK-5961           
1 56914U 23083AQ  26164.94442999 -.00000517  00000+0 -92801-5 0  9999
2 56914  42.9997 246.6899 0000158 338.5930  21.4915 15.27577292166525
STARLINK-5965           
1 56915U 23083AR  26165.49449622  .00000643  00000+0  32898-4 0  9998
2 56915  43.0063 243.9460 0001826 286.7808  73.2843 15.27575934166602
STARLINK-5973           
1 56916U 23083AS  26165.49320598 -.00000421  00000+0 -57614-5 0  9999
2 56916  43.0043 243.9272 0002363 277.0475  83.0108 15.27582726166578
STARLINK-5971           
1 56917U 23083AT  26165.51248750 -.00000475  00000+0 -77453-5 0  9994
2 56917  43.0000 244.0737 0001235 267.2716  92.7994 15.27573196166601
STARLINK-5951           
1 56918U 23083AU  26163.52005554 -.00000062  00000+0  72641-5 0  9992
2 56918  42.9996 254.9133 0001391 251.9386 108.1314 15.27575524166302
STARLINK-5966           
1 56919U 23083AV  26164.94827855  .00000502  00000+0  27765-4 0  9990
2 56919  43.0024 246.7225 0001453 277.2920  82.7767 15.27575308166525
STARLINK-5960           
1 56920U 23083AW  26165.48935155  .00000398  00000+0  23992-4 0  9996
2 56920  42.9989 243.8928 0000882 250.6415 109.4342 15.27579754166606
STARLINK-5958           
1 56921U 23083AX  26164.95213254  .00000528  00000+0  28732-4 0  9999
2 56921  43.0040 246.7464 0001878 267.8724  92.1913 15.27578836166526
