OBJECT_NAME,OBJECT_ID,EPOCH,MEAN_MOTION,ECCENTRICITY,INCLINATION,RA_OF_ASC_NODE,ARG_OF_PERICENTER,MEAN_ANOMALY,EPHEMERIS_TYPE,CLASSIFICATION_TYPE,NORAD_CAT_ID,ELEMENT_SET_NO,REV_AT_EPOCH,BSTAR,MEAN_MOTION_DOT,MEAN_MOTION_DDOT
STARLINK-6219,2023-083S,2026-06-13T23:46:59.318976,15.27579098,.00014949,43.0066,265.1563,286.4364,73.6323,0,U,56892,999,16631,.18913831E-4,.258E-5,0
STARLINK-6216,2023-083T,2026-06-14T12:48:26.807040,15.27609641,.0001918,43.0138,258.0891,276.9597,83.1037,0,U,56893,999,16656,.14947E-3,.3856E-4,0
STARLINK-6144,2023-083U,2026-06-14T13:11:50.885664,15.27590027,.0001486,43.0037,261.6142,261.2055,98.8628,0,U,56894,999,16652,.6926E-4,.1645E-4,0
STARLINK-6208,2023-083V,2026-06-13T23:41:26.675520,15.27571432,.00013775,43.0002,265.1275,277.1483,82.9212,0,U,56895,999,16631,.160249E-5,-.218E-5,0
STARLINK-6202,2023-083W,2026-06-13T23:35:53.246688,15.27574053,.00010899,43.0016,265.0970,272.2703,87.8024,0,U,56896,999,16642,.2287762E-5,-.199E-5,0
STARLINK-6200,2023-083X,2026-06-13T14:07:14.340288,15.27579468,.0001252,43.0004,267.2945,275.1197,84.9512,0,U,56897,999,16636,.18585E-4,.249E-5,0
STARLINK-6205,2023-083Y,2026-06-13T23:29:53.927232,15.27579741,.00017235,43.0054,258.2441,281.1031,78.9627,0,U,56898,999,16650,.22177281E-4,.348E-5,0
STARLINK-6203,2023-083Z,2026-06-14T12:32:30.950016,15.27595391,.0001485,43.0059,254.5894,270.5809,89.4873,0,U,56899,999,16658,.86991E-4,.2133E-4,0
STARLINK-6207,2023-083AA,2026-06-14T12:32:46.826880,15.27577506,.0001101,42.9981,244.1571,275.0875,84.9851,0,U,56900,999,16657,-.18519E-4,-.771E-5,0
STARLINK-6185,2023-083AB,2026-06-14T13:26:13.155072,15.27581495,.000152,43.0029,254.8664,284.4349,75.6334,0,U,56901,999,16659,.36309E-4,.737E-5,0
STARLINK-6195,2023-083AC,2026-06-14T12:36:28.903392,15.27574681,.0001017,43.0012,244.1744,277.9055,82.1681,0,U,56902,999,16671,-.33738E-5,-.355E-5,0
STARLINK-6192,2023-083AD,2026-06-14T12:47:21.372864,15.27575657,.0001394,42.9996,254.6621,266.3175,93.7518,0,U,56903,999,16659,-.47882E-6,-.275E-5,0
STARLINK-6193,2023-083AE,2026-06-14T12:06:52.807968,15.27574177,.0001483,43.0005,244.0172,269.7813,90.2868,0,U,56904,999,16660,.47114E-5,-.133E-5,0
STARLINK-6183,2023-083AF,2026-06-13T22:41:48.066144,15.27596412,.00016902,43.0047,246.7144,280.5698,79.4963,0,U,56905,999,16652,.10426087E-3,.2609E-4,0
STARLINK-6098,2023-083AG,2026-06-12T23:20:34.202976,15.27577623,.00019515,43.0061,252.3038,279.6786,80.3846,0,U,56906,999,16637,.1787737E-4,.229E-5,0
STARLINK-6110,2023-083AH,2026-06-13T16:30:44.635968,15.27567473,.00017262,43.0059,248.2154,280.3061,79.7596,0,U,56907,999,16659,-.45764862E-4,-.1521E-4,0
STARLINK-6186,2023-083AJ,2026-06-14T11:46:31.510272,15.27573663,.0001592,43.0000,243.9098,263.2358,96.8313,0,U,56908,999,16660,-.24506E-5,-.33E-5,0
STARLINK-5999,2023-083AK,2026-06-14T12:42:03.386304,15.27554398,.0004543,43.0038,244.2090,278.3109,81.7228,0,U,56909,999,16671,-.8067E-4,-.2482E-4,0
STARLINK-6179,2023-083AL,2026-06-12T12:52:56.788032,15.27572984,.00012344,43.0022,255.0484,263.1471,96.9240,0,U,56910,999,16629,.9267644E-5,-.7E-7,0
STARLINK-6116,2023-083AM,2026-06-14T06:52:56.860608,15.27577320,.0001157,43.0002,244.9582,227.6647,132.4107,0,U,56911,999,16657,.12035E-4,.69E-6,0
STARLINK-5805,2023-083AN,2026-06-13T22:05:00.910752,15.27577920,.0001048,43.0001,247.3688,274.6255,85.4477,0,U,56912,999,16651,.24973E-4,.425E-5,0
STARLINK-5950,2023-083AP,2026-06-14T11:40:58.537632,15.27577118,.000259,43.0134,243.8919,280.7471,79.3089,0,U,56913,999,16660,.13696E-4,.114E-5,0
STARLINK-5961,2023-083AQ,2026-06-13T22:39:58.751136,15.27577292,.00001583,42.9997,246.6899,338.5930,21.4915,0,U,56914,999,16652,-.928013E-5,-.517E-5,0
STARLINK-5965,2023-083AR,2026-06-14T11:52:04.473408,15.27575934,.0001826,43.0063,243.9460,286.7808,73.2843,0,U,56915,999,16660,.32898E-4,.643E-5,0
STARLINK-5973,2023-083AS,2026-06-14T11:50:12.996672,15.27582726,.0002363,43.0043,243.9272,277.0475,83.0108,0,U,56916,999,16657,-.57614E-5,-.421E-5,0
STARLINK-5971,2023-083AT,2026-06-14T12:17:58.920000,15.27573196,.0001235,43.0000,244.0737,267.2716,92.7994,0,U,56917,999,16660,-.77453E-5,-.475E-5,0
STARLINK-5951,2023-083AU,2026-06-12T12:28:52.798656,15.27575524,.00013915,42.9996,254.9133,251.9386,108.1314,0,U,56918,999,16630,.7264132E-5,-.62E-6,0
STARLINK-5966,2023-083AV,2026-06-13T22:45:31.266720,15.27575308,.00014533,43.0024,246.7225,277.2920,82.7767,0,U,56919,999,16652,.27764961E-4,.502E-5,0
STARLINK-5960,2023-083AW,2026-06-14T11:44:39.973920,15.27579754,.0000882,42.9989,243.8928,250.6415,109.4342,0,U,56920,999,16660,.23992E-4,.398E-5,0
STARLINK-5958,2023-083AX,2026-06-13T22:51:04.251456,15.27578836,.00018786,43.0040,246.7464,267.8724,92.1913,0,U,56921,999,16652,.28732121E-4,.528E-5,0
